NORAD_CAT_ID,OBJECT_NAME,OBJECT_TYPE,EPOCH,MEAN_MOTION,ECCENTRICITY,INCLINATION,RA_OF_ASC_NODE,ARG_OF_PERICENTER,MEAN_ANOMALY,BSTAR,MEAN_MOTION_DOT,MEAN_MOTION_DDOT,TLE_LINE0,TLE_LINE1,TLE_LINE2,SEMIMAJOR_AXIS,PERIOD,APOGEE,PERIGEE,DECAYED
53618.0,STARLINK-4604,PAYLOAD,2023-05-14 12:10:24,15.08830945,0.0001228,53.2159,178.7027,93.0624,267.0508,-6.3226e-06,-3.88e-06,0.0,0 STARLINK-4604,1 53618U 22104AG  23134.50723073 -.00000388  00000-0 -63226-5 0  9997,2 53618  53.2159 178.7027 0001228  93.0624 267.0508 15.08830945 39530,6917.908,95.438,540.623,538.924,0.0
53618.0,STARLINK-4604,PAYLOAD,2023-05-14 20:07:19,15.08837516,0.0001085,53.2146,177.2174,86.1723,273.9393,6.2552e-05,7.08e-06,0.0,0 STARLINK-4604,1 53618U 22104AG  23134.83842566  .00000708  00000-0  62552-4 0  9996,2 53618  53.2146 177.2174 0001085  86.1723 273.9393 15.08837516 39581,6917.888,95.438,540.504,539.002,0.0
53618.0,STARLINK-4604,PAYLOAD,2023-05-14 23:18:06,15.08835093,0.0001076,53.215,176.6232,78.2061,281.9052,0.00014206,1.974e-05,0.0,0 STARLINK-4604,1 53618U 22104AG  23134.97090367  .00001974  00000-0  14206-3 0  9993,2 53618  53.2150 176.6232 0001076  78.2061 281.9052 15.08835093 39603,6917.895,95.438,540.505,539.016,0.0
53618.0,STARLINK-4604,PAYLOAD,2023-05-15 10:25:47,15.08846589,0.0001174,53.2147,174.5412,76.2085,283.9038,9.4551e-05,1.218e-05,0.0,0 STARLINK-4604,1 53618U 22104AG  23135.43457903  .00001218  00000-0  94551-4 0  9991,2 53618  53.2147 174.5412 0001174  76.2085 283.9038 15.08846589 39674,6917.86,95.437,540.537,538.913,0.0
53618.0,STARLINK-4604,PAYLOAD,2023-05-15 19:58:06,15.08842019,0.0001184,53.2148,172.7572,75.2525,284.8598,7.741e-05,9.44e-06,0.0,0 STARLINK-4604,1 53618U 22104AG  23135.83202164  .00000944  00000-0  77410-4 0  9992,2 53618  53.2148 172.7572 0001184  75.2525 284.8598 15.08842019 39733,6917.874,95.437,540.558,538.92,0.0
53618.0,STARLINK-4604,PAYLOAD,2023-05-16 02:19:39,15.08833738,0.0001202,53.2146,171.5674,78.2817,281.831,0.00012694,1.733e-05,0.0,0 STARLINK-4604,1 53618U 22104AG  23136.09698648  .00001733  00000-0  12694-3 0  9996,2 53618  53.2146 171.5674 0001202  78.2817 281.8310 15.08833738 39770,6917.9,95.438,540.596,538.933,0.0
53618.0,STARLINK-4604,PAYLOAD,2023-05-16 11:51:58,15.08837874,0.0001197,53.2147,169.783,78.4625,281.6501,0.00013079,1.794e-05,0.0,0 STARLINK-4604,1 53618U 22104AG  23136.49442576  .00001794  00000-0  13079-3 0  9992,2 53618  53.2147 169.7830 0001197  78.4625 281.6501 15.08837874 39838,6917.887,95.438,540.58,538.924,0.0
53618.0,STARLINK-4604,PAYLOAD,2023-05-17 08:31:59,15.08842413,0.0001222,53.2145,165.9171,80.6435,279.4695,1.418e-05,-6.2e-07,0.0,0 STARLINK-4604,1 53618U 22104AG  23137.35554402 -.00000062  00000-0  14180-4 0  9993,2 53618  53.2145 165.9171 0001222  80.6435 279.4695 15.08842413 39963,6917.873,95.437,540.583,538.893,0.0
53618.0,STARLINK-4604,PAYLOAD,2023-05-18 09:58:09,15.08837198,0.000115,53.2146,161.1589,86.5834,273.529,4.1854e-05,3.78e-06,0.0,0 STARLINK-4604,1 53618U 22104AG  23138.41538558  .00000378  00000-0  41854-4 0  9992,2 53618  53.2146 161.1589 0001150  86.5834 273.5290 15.08837198 40123,6917.889,95.438,540.55,538.958,0.0
53618.0,STARLINK-4604,PAYLOAD,2023-05-18 17:55:05,15.08836344,0.0001154,53.2147,159.6722,84.0428,276.0696,1.5494e-05,-4.1e-07,0.0,0 STARLINK-4604,1 53618U 22104AG  23138.74658745 -.00000041  00000-0  15494-4 0  9998,2 53618  53.2147 159.6722 0001154  84.0428 276.0696 15.08836344 40176,6917.892,95.438,540.555,538.958,0.0
53618.0,STARLINK-4604,PAYLOAD,2023-05-19 17:45:52,15.0883649,0.0001134,53.2148,155.212,82.2722,277.8399,1.9906e-05,2.9e-07,0.0,0 STARLINK-4604,1 53618U 22104AG  23139.74018914  .00000029  00000-0  19906-4 0  9994,2 53618  53.2148 155.2120 0001134  82.2722 277.8399 15.08836490 40324,6917.891,95.438,540.541,538.972,0.0
53618.0,STARLINK-4604,PAYLOAD,2023-05-20 17:36:39,15.08840398,0.0001135,53.2152,150.7513,84.4148,275.6974,8.0052e-05,9.86e-06,0.0,0 STARLINK-4604,1 53618U 22104AG  23140.73378709  .00000986  00000-0  80052-4 0  9998,2 53618  53.2152 150.7513 0001135  84.4148 275.6974 15.08840398 40475,6917.879,95.438,540.529,538.959,0.0
53618.0,STARLINK-4604,PAYLOAD,2023-05-21 09:30:30,15.0884555,0.0001147,53.2152,147.7773,83.9861,276.1261,0.00011534,1.549e-05,0.0,0 STARLINK-4604,1 53618U 22104AG  23141.39618267  .00001549  00000-0  11534-3 0  9991,2 53618  53.2152 147.7773 0001147  83.9861 276.1261 15.08845550 40579,6917.863,95.437,540.522,538.935,0.0
53618.0,STARLINK-4604,PAYLOAD,2023-05-21 17:27:26,15.08839287,0.0001136,53.2153,146.2908,85.6982,274.414,5.832e-05,6.4e-06,0.0,0 STARLINK-4604,1 53618U 22104AG  23141.72738824  .00000640  00000-0  58320-4 0  9996,2 53618  53.2153 146.2908 0001136  85.6982 274.4140 15.08839287 40628,6917.883,95.438,540.533,538.962,0.0
53618.0,STARLINK-4604,PAYLOAD,2023-05-22 09:21:18,15.08836055,0.0001188,53.2153,143.3169,85.7757,274.3371,3.0132e-05,1.92e-06,0.0,0 STARLINK-4604,1 53618U 22104AG  23142.38979299  .00000192  00000-0  30132-4 0  9995,2 53618  53.2153 143.3169 0001188  85.7757 274.3371 15.08836055 40729,6917.892,95.438,540.579,538.936,0.0
53618.0,STARLINK-4604,PAYLOAD,2023-05-22 17:18:13,15.08838758,0.0001199,53.2158,141.8304,86.6878,273.4252,3.3579e-05,2.47e-06,0.0,0 STARLINK-4604,1 53618U 22104AG  23142.72099169  .00000247  00000-0  33579-4 0  9991,2 53618  53.2158 141.8304 0001199  86.6878 273.4252 15.08838758 40779,6917.884,95.438,540.579,538.92,0.0
53618.0,STARLINK-4604,PAYLOAD,2023-05-22 23:39:46,15.08842383,0.000125,53.2162,140.6408,85.3326,274.7809,1.3339e-05,-7.6e-07,0.0,0 STARLINK-4604,1 53618U 22104AG  23142.98595008 -.00000076  00000-0  13339-4 0  9995,2 53618  53.2162 140.6408 0001250  85.3326 274.7809 15.08842383 40814,6917.873,95.437,540.603,538.873,0.0
53618.0,STARLINK-4604,PAYLOAD,2023-05-23 17:09:00,15.08837944,0.0001192,53.2155,137.3691,88.0962,272.0166,2.3622e-05,8.8e-07,0.0,0 STARLINK-4604,1 53618U 22104AG  23143.71459175  .00000088  00000-0  23622-4 0  9999,2 53618  53.2155 137.3691 0001192  88.0962 272.0166 15.08837944 40920,6917.887,95.438,540.576,538.927,0.0
53618.0,STARLINK-4604,PAYLOAD,2023-05-24 09:02:52,15.0883747,0.0001193,53.2158,134.3954,86.8177,273.2952,8.4807e-05,1.062e-05,0.0,0 STARLINK-4604,1 53618U 22104AG  23144.37699234  .00001062  00000-0  84807-4 0  9999,2 53618  53.2158 134.3954 0001193  86.8177 273.2952 15.08837470 41029,6917.888,95.438,540.578,538.928,0.0
53618.0,STARLINK-4604,PAYLOAD,2023-05-26 03:58:16,15.08837265,0.0001193,53.2155,126.3665,83.6511,276.4617,3.7094e-05,3.03e-06,0.0,0 STARLINK-4604,1 53618U 22104AG  23146.16547374  .00000303  00000-0  37094-4 0  9998,2 53618  53.2155 126.3665 0001193  83.6511 276.4617 15.08837265 41297,6917.889,95.438,540.579,538.928,0.0
53618.0,STARLINK-4604,PAYLOAD,2023-05-26 08:44:26,15.08839923,0.0001194,53.2159,125.4749,82.8452,277.2676,3.5204e-05,2.72e-06,0.0,0 STARLINK-4604,1 53618U 22104AG  23146.36419222  .00000272  00000-0  35204-4 0  9996,2 53618  53.2159 125.4749 0001194  82.8452 277.2676 15.08839923 41321,6917.881,95.438,540.572,538.92,0.0
53618.0,STARLINK-4604,PAYLOAD,2023-05-26 21:27:31,15.0883554,0.0001213,53.2157,123.0958,82.9001,277.2128,-4.4785e-06,-3.59e-06,0.0,0 STARLINK-4604,1 53618U 22104AG  23146.89411675 -.00000359  00000-0 -44785-5 0  9991,2 53618  53.2157 123.0958 0001213  82.9001 277.2128 15.08835540 41400,6917.894,95.438,540.598,538.92,0.0
53618.0,STARLINK-4604,PAYLOAD,2023-05-27 05:24:27,15.08838475,0.0001189,53.2159,121.6089,82.5742,277.5385,-8.4213e-07,-3.01e-06,0.0,0 STARLINK-4604,1 53618U 22104AG  23147.22531506 -.00000301  00000-0 -84213-6 0  9993,2 53618  53.2159 121.6089 0001189  82.5742 277.5385 15.08838475 41454,6917.885,95.438,540.573,538.928,0.0
53618.0,STARLINK-4604,PAYLOAD,2023-05-27 21:18:18,15.08833174,0.0001183,53.2161,118.6354,87.4959,272.6169,2.3786e-05,9.1e-07,0.0,0 STARLINK-4604,1 53618U 22104AG  23147.88771891  .00000091  00000-0  23786-4 0  9998,2 53618  53.2161 118.6354 0001183  87.4959 272.6169 15.08833174 41554,6917.901,95.438,540.585,538.948,0.0
53618.0,STARLINK-4604,PAYLOAD,2023-05-28 05:15:14,15.08838789,0.0001175,53.2162,117.1487,89.9275,270.1852,4.2806e-05,3.93e-06,0.0,0 STARLINK-4604,1 53618U 22104AG  23148.21891570  .00000393  00000-0  42806-4 0  9992,2 53618  53.2162 117.1487 0001175  89.9275 270.1852 15.08838789 41600,6917.884,95.438,540.562,538.936,0.0
53618.0,STARLINK-4604,PAYLOAD,2023-05-28 06:50:37,15.08840998,0.0001125,53.2163,116.8518,90.2722,269.8399,6.4793e-06,-1.85e-06,0.0,0 STARLINK-4604,1 53618U 22104AG  23148.28515536 -.00000185  00000-0  64793-5 0  9994,2 53618  53.2163 116.8518 0001125  90.2722 269.8399 15.08840998 41616,6917.877,95.437,540.521,538.964,0.0
53618.0,STARLINK-4604,PAYLOAD,2023-05-28 21:09:05,15.08835748,0.0001163,53.2161,114.1751,92.0285,268.0841,5.8563e-05,6.44e-06,0.0,0 STARLINK-4604,1 53618U 22104AG  23148.88131847  .00000644  00000-0  58563-4 0  9995,2 53618  53.2161 114.1751 0001163  92.0285 268.0841 15.08835748 41700,6917.893,95.438,540.563,538.954,0.0
53618.0,STARLINK-4604,PAYLOAD,2023-05-29 06:41:24,15.08840169,0.0001179,53.2165,112.3909,92.1344,267.9783,6.2247e-05,7.03e-06,0.0,0 STARLINK-4604,1 53618U 22104AG  23149.27875629  .00000703  00000-0  62247-4 0  9992,2 53618  53.2165 112.3909 0001179  92.1344 267.9783 15.08840169 41765,6917.88,95.438,540.56,538.929,0.0
53618.0,STARLINK-4604,PAYLOAD,2023-05-29 20:59:53,15.08831165,0.0001235,53.2166,109.7148,94.6367,265.4766,1.0889e-05,-1.15e-06,0.0,0 STARLINK-4604,1 53618U 22104AG  23149.87492524 -.00000115  00000-0  10889-4 0  9990,2 53618  53.2166 109.7148 0001235  94.6367 265.4766 15.08831165 41856,6917.907,95.438,540.627,538.918,0.0
53618.0,STARLINK-4604,PAYLOAD,2023-05-30 03:21:26,15.0883173,0.0001114,53.2173,108.5255,90.917,269.195,9.534e-06,-1.36e-06,0.0,0 STARLINK-4604,1 53618U 22104AG  23150.13988654 -.00000136  00000-0  95340-5 0  9994,2 53618  53.2173 108.5255 0001114  90.9170 269.1950 15.08831730 41895,6917.906,95.438,540.541,539.0,0.0
